start=new Date('2021-12-08T00:00:00.000Z').valueOf();
sats=[{"NORAD_CAT_ID":"47562","ECCENTRICITY":"0.00021080","TLE_LINE1":"1 47562U 21009Q   21341.75836354  .00000446  00000-0  48879-4 0  9992","SEMIMAJOR_AXIS":"6925.340","GP_ID":"191300037","ELEMENT_SET_NO":"999","OBJECT_TYPE":"PAYLOAD","BSTAR":"0.00004887900000","ARG_OF_PERICENTER":"83.9879","MEAN_MOTION":"15.06402809","INCLINATION":"53.0550","MEAN_MOTION_DOT":"0.00000446","PERIOD":"95.592","CLASSIFICATION_TYPE":"U","PERIAPSIS":"545.745","TIME_SYSTEM":"UTC","REV_AT_EPOCH":"4673","RA_OF_ASC_NODE":"153.0038","EPOCH":"2021-12-07T18:12:02.609856","OBJECT_NAME":"STARLINK-1961","MEAN_ANOMALY":"276.1350","OBJECT_ID":"2021-009Q","REF_FRAME":"TEME","MEAN_ELEMENT_THEORY":"SGP4","COUNTRY_CODE":"US","SITE":"AFETR","DECAY_DATE":null,"RCS_SIZE":"LARGE","LAUNCH_DATE":"2021-02-04","FILE":"3235143","APOAPSIS":"548.665","TLE_LINE2":"2 47562  53.0550 153.0038 0002108  83.9879 276.1350 15.06402809 46738","CENTER_NAME":"EARTH","MEAN_MOTION_DDOT":"0.0000000000000","EPHEMERIS_TYPE":"0"},{"EPHEMERIS_TYPE":"0","MEAN_MOTION_DDOT":"0.0000000000000","LAUNCH_DATE":"2021-02-04","TLE_LINE2":"2 47563  53.0555 152.9050 0001974  85.7907 274.3308 15.06384984 46734","APOAPSIS":"548.627","CENTER_NAME":"EARTH","FILE":"3235143","COUNTRY_CODE":"US","REF_FRAME":"TEME","MEAN_ELEMENT_THEORY":"SGP4","DECAY_DATE":null,"RCS_SIZE":"LARGE","SITE":"AFETR","EPOCH":"2021-12-07T18:43:54.696288","TIME_SYSTEM":"UTC","REV_AT_EPOCH":"4673","RA_OF_ASC_NODE":"152.9050","MEAN_ANOMALY":"274.3308","OBJECT_ID":"2021-009R","OBJECT_NAME":"STARLINK-1962","MEAN_MOTION_DOT":"0.00000162","PERIOD":"95.593","CLASSIFICATION_TYPE":"U","PERIAPSIS":"545.893","ARG_OF_PERICENTER":"85.7907","BSTAR":"0.00002976800000","INCLINATION":"53.0555","MEAN_MOTION":"15.06384984","OBJECT_TYPE":"PAYLOAD","ECCENTRICITY":"0.00019740","TLE_LINE1":"1 47563U 21009R   21341.78049417  .00000162  00000-0  29768-4 0  9993","SEMIMAJOR_AXIS":"6925.395","NORAD_CAT_ID":"47563","GP_ID":"191299790","ELEMENT_SET_NO":"999"},{"OBJECT_TYPE":"PAYLOAD","SEMIMAJOR_AXIS":"6925.380","ECCENTRICITY":"0.00021590","TLE_LINE1":"1 47564U 21009S   21341.84775873 -.00001316  00000-0 -69442-4 0  9990","NORAD_CAT_ID":"47564","ELEMENT_SET_NO":"999","GP_ID":"191298538","CLASSIFICATION_TYPE":"U","PERIOD":"95.593","MEAN_MOTION_DOT":"-0.00001316","PERIAPSIS":"545.750","ARG_OF_PERICENTER":"95.1051","BSTAR":"-0.00006944200000","INCLINATION":"53.0546","MEAN_MOTION":"15.06389757","COUNTRY_CODE":"US","MEAN_ELEMENT_THEORY":"SGP4","REF_FRAME":"TEME","RCS_SIZE":"LARGE","DECAY_DATE":null,"SITE":"AFETR","EPOCH":"2021-12-07T20:20:46.354272","RA_OF_ASC_NODE":"142.5985","TIME_SYSTEM":"UTC","REV_AT_EPOCH":"4688","OBJECT_ID":"2021-009S","MEAN_ANOMALY":"265.0184","OBJECT_NAME":"STARLINK-1963","EPHEMERIS_TYPE":"0","MEAN_MOTION_DDOT":"0.0000000000000","LAUNCH_DATE":"2021-02-04","CENTER_NAME":"EARTH","TLE_LINE2":"2 47564  53.0546 142.5985 0002159  95.1051 265.0184 15.06389757 46886","APOAPSIS":"548.740","FILE":"3235143"},{"OBJECT_TYPE":"PAYLOAD","ECCENTRICITY":"0.00020690","TLE_LINE1":"1 47565U 21009T   21341.84408179  .00000600  00000-0  59222-4 0  9991","SEMIMAJOR_AXIS":"6925.384","NORAD_CAT_ID":"47565","GP_ID":"191299289","ELEMENT_SET_NO":"999","MEAN_MOTION_DOT":"0.00000600","PERIOD":"95.593","CLASSIFICATION_TYPE":"U","PERIAPSIS":"545.816","ARG_OF_PERICENTER":"85.6316","BSTAR":"0.00005922200000","INCLINATION":"53.0546","MEAN_MOTION":"15.06388522","COUNTRY_CODE":"US","REF_FRAME":"TEME","MEAN_ELEMENT_THEORY":"SGP4","DECAY_DATE":null,"RCS_SIZE":"LARGE","SITE":"AFETR","EPOCH":"2021-12-07T20:15:28.666656","TIME_SYSTEM":"UTC","REV_AT_EPOCH":"4688","RA_OF_ASC_NODE":"142.6131","MEAN_ANOMALY":"274.4909","OBJECT_ID":"2021-009T","OBJECT_NAME":"STARLINK-1964","EPHEMERIS_TYPE":"0","MEAN_MOTION_DDOT":"0.0000000000000","LAUNCH_DATE":"2021-02-04","TLE_LINE2":"2 47565  53.0546 142.6131 0002069  85.6316 274.4909 15.06388522 46887","APOAPSIS":"548.682","CENTER_NAME":"EARTH","FILE":"3235143"},{"OBJECT_TYPE":"PAYLOAD","GP_ID":"191299537","ELEMENT_SET_NO":"999","NORAD_CAT_ID":"47566","TLE_LINE1":"1 47566U 21009U   21341.70492359 -.00000839  00000-0 -37444-4 0  9998","ECCENTRICITY":"0.00020980","SEMIMAJOR_AXIS":"6925.363","PERIAPSIS":"545.775","MEAN_MOTION_DOT":"-0.00000839","CLASSIFICATION_TYPE":"U","PERIOD":"95.592","MEAN_MOTION":"15.06395174","INCLINATION":"53.0547","BSTAR":"-0.00003744400000","ARG_OF_PERICENTER":"94.3346","SITE":"AFETR","RCS_SIZE":"LARGE","DECAY_DATE":null,"REF_FRAME":"TEME","MEAN_ELEMENT_THEORY":"SGP4","COUNTRY_CODE":"US","OBJECT_NAME":"STARLINK-1965","MEAN_ANOMALY":"265.7883","OBJECT_ID":"2021-009U","REV_AT_EPOCH":"4700","TIME_SYSTEM":"UTC","RA_OF_ASC_NODE":"133.2325","EPOCH":"2021-12-07T16:55:05.398176","MEAN_MOTION_DDOT":"0.0000000000000","EPHEMERIS_TYPE":"0","FILE":"3235143","TLE_LINE2":"2 47566  53.0547 133.2325 0002098  94.3346 265.7883 15.06395174 47002","APOAPSIS":"548.681","CENTER_NAME":"EARTH","LAUNCH_DATE":"2021-02-04"},{"EPHEMERIS_TYPE":"0","MEAN_MOTION_DDOT":"0.0000000000000","LAUNCH_DATE":"2021-02-04","TLE_LINE2":"2 47567  53.0547 173.9706 0002203  81.2973 278.8266 15.06396926 46416","APOAPSIS":"548.749","CENTER_NAME":"EARTH","FILE":"3234816","COUNTRY_CODE":"US","REF_FRAME":"TEME","MEAN_ELEMENT_THEORY":"SGP4","RCS_SIZE":"LARGE","DECAY_DATE":null,"SITE":"AFETR","EPOCH":"2021-12-07T13:01:34.190976","TIME_SYSTEM":"UTC","REV_AT_EPOCH":"4641","RA_OF_ASC_NODE":"173.9706","MEAN_ANOMALY":"278.8266","OBJECT_ID":"2021-009V","OBJECT_NAME":"STARLINK-1966","MEAN_MOTION_DOT":"0.00002435","PERIOD":"95.592","CLASSIFICATION_TYPE":"U","PERIAPSIS":"545.697","ARG_OF_PERICENTER":"81.2973","BSTAR":"0.00018231000000","INCLINATION":"53.0547","MEAN_MOTION":"15.06396926","OBJECT_TYPE":"PAYLOAD","ECCENTRICITY":"0.00022030","TLE_LINE1":"1 47567U 21009V   21341.54275684  .00002435  00000-0  18231-3 0  9995","SEMIMAJOR_AXIS":"6925.358","NORAD_CAT_ID":"47567","GP_ID":"191272076","ELEMENT_SET_NO":"999"},{"FILE":"3235143","CENTER_NAME":"EARTH","APOAPSIS":"548.659","TLE_LINE2":"2 47568  53.0536 173.5562 0002077  86.1693 273.9533 15.06397655 46438","LAUNCH_DATE":"2021-02-04","MEAN_MOTION_DDOT":"0.0000000000000","EPHEMERIS_TYPE":"0","OBJECT_NAME":"STARLINK-1967","OBJECT_ID":"2021-009W","MEAN_ANOMALY":"273.9533","RA_OF_ASC_NODE":"173.5562","REV_AT_EPOCH":"4643","TIME_SYSTEM":"UTC","EPOCH":"2021-12-07T15:14:14.621280","SITE":"AFETR","RCS_SIZE":"LARGE","DECAY_DATE":null,"MEAN_ELEMENT_THEORY":"SGP4","REF_FRAME":"TEME","COUNTRY_CODE":"US","MEAN_MOTION":"15.06397655","INCLINATION":"53.0536","BSTAR":"0.00007663700000","ARG_OF_PERICENTER":"86.1693","PERIAPSIS":"545.782","CLASSIFICATION_TYPE":"U","PERIOD":"95.592","MEAN_MOTION_DOT":"0.00000860","ELEMENT_SET_NO":"999","GP_ID":"191299039","NORAD_CAT_ID":"47568","SEMIMAJOR_AXIS":"6925.356","TLE_LINE1":"1 47568U 21009W   21341.63489145  .00000860  00000-0  76637-4 0  9990","ECCENTRICITY":"0.00020770","OBJECT_TYPE":"PAYLOAD"},{"OBJECT_TYPE":"PAYLOAD","ECCENTRICITY":"0.00018850","TLE_LINE1":"1 47569U 21009X   21341.72376759  .00000135  00000-0  12559-4 0  9995","SEMIMAJOR_AXIS":"6817.862","NORAD_CAT_ID":"47569","GP_ID":"191275650","ELEMENT_SET_NO":"999","MEAN_MOTION_DOT":"0.00000135","PERIOD":"93.375","CLASSIFICATION_TYPE":"U","PERIAPSIS":"438.442","ARG_OF_PERICENTER":"38.1036","BSTAR":"0.00001255900000","INCLINATION":"53.0521","MEAN_MOTION":"15.42163722","COUNTRY_CODE":"US","REF_FRAME":"TEME","MEAN_ELEMENT_THEORY":"SGP4","DECAY_DATE":null,"RCS_SIZE":"LARGE","SITE":"AFETR","EPOCH":"2021-12-07T17:22:13.519776","TIME_SYSTEM":"UTC","REV_AT_EPOCH":"4751","RA_OF_ASC_NODE":"140.3577","MEAN_ANOMALY":"322.0101","OBJECT_ID":"2021-009X","OBJECT_NAME":"STARLINK-1968","EPHEMERIS_TYPE":"0","MEAN_MOTION_DDOT":"0.0000000000000","LAUNCH_DATE":"2021-02-04","APOAPSIS":"441.012","TLE_LINE2":"2 47569  53.0521 140.3577 0001885  38.1036 322.0101 15.42163722 47518","CENTER_NAME":"EARTH","FILE":"3234963"},{"OBJECT_TYPE":"PAYLOAD","ELEMENT_SET_NO":"999","GP_ID":"191300038","SEMIMAJOR_AXIS":"6925.345","ECCENTRICITY":"0.00019810","TLE_LINE1":"1 47570U 21009Y   21341.82655524  .00000518  00000-0  53661-4 0  9992","NORAD_CAT_ID":"47570","PERIAPSIS":"545.838","PERIOD":"95.592","CLASSIFICATION_TYPE":"U","MEAN_MOTION_DOT":"0.00000518","INCLINATION":"53.0531","MEAN_MOTION":"15.06401289","ARG_OF_PERICENTER":"95.5425","BSTAR":"0.00005366100000","RCS_SIZE":"LARGE","DECAY_DATE":null,"SITE":"AFETR","COUNTRY_CODE":"US","MEAN_ELEMENT_THEORY":"SGP4","REF_FRAME":"TEME","OBJECT_ID":"2021-009Y","MEAN_ANOMALY":"264.5790","OBJECT_NAME":"STARLINK-1969","EPOCH":"2021-12-07T19:50:14.372736","RA_OF_ASC_NODE":"132.6948","REV_AT_EPOCH":"4702","TIME_SYSTEM":"UTC","EPHEMERIS_TYPE":"0","MEAN_MOTION_DDOT":"0.0000000000000","CENTER_NAME":"EARTH","TLE_LINE2":"2 47570  53.0531 132.6948 0001981  95.5425 264.5790 15.06401289 47026","APOAPSIS":"548.582","FILE":"3235143","LAUNCH_DATE":"2021-02-04"},{"MEAN_MOTION_DDOT":"0.0000000000000","EPHEMERIS_TYPE":"0","LAUNCH_DATE":"2021-02-04","FILE":"3235143","CENTER_NAME":"EARTH","TLE_LINE2":"2 47571  53.0554 143.5460 0002060  89.4875 270.6349 15.06394897 46856","APOAPSIS":"548.656","MEAN_ELEMENT_THEORY":"SGP4","REF_FRAME":"TEME","COUNTRY_CODE":"US","SITE":"AFETR","RCS_SIZE":"LARGE","DECAY_DATE":null,"RA_OF_ASC_NODE":"143.5460","REV_AT_EPOCH":"4685","TIME_SYSTEM":"UTC","EPOCH":"2021-12-07T15:18:14.187744","OBJECT_NAME":"STARLINK-1970","OBJECT_ID":"2021-009Z","MEAN_ANOMALY":"270.6349","PERIOD":"95.592","CLASSIFICATION_TYPE":"U","MEAN_MOTION_DOT":"0.00000787","PERIAPSIS":"545.803","BSTAR":"0.00007175900000","ARG_OF_PERICENTER":"89.4875","MEAN_MOTION":"15.06394897","INCLINATION":"53.0554","OBJECT_TYPE":"PAYLOAD","NORAD_CAT_ID":"47571","SEMIMAJOR_AXIS":"6925.364","ECCENTRICITY":"0.00020600","TLE_LINE1":"1 47571U 21009Z   21341.63766421  .00000787  00000-0  71759-4 0  9997","ELEMENT_SET_NO":"999","GP_ID":"191299791"}];
